IRIDIUM 26              
1 24903U 97043A   25353.17346878  .00000337  00000+0  10630-3 0  9998
2 24903  86.3954  32.8586 0002201  98.9138 261.2308 14.37332596483314
IRIDIUM 22              
1 24907U 97043E   25353.11785525  .00000287  00000+0  91989-4 0  9993
2 24907  86.3958  36.5806 0002324  94.8659 265.2803 14.36125883483319
DUMMY MASS 1            
1 24925U 97048A   25353.39970044  .00000322  00000+0  32700-4 0  9996
2 24925  86.3340  49.6245 0005841 188.6448 171.4677 14.87188292532659
DUMMY MASS 2            
1 24926U 97048B   25353.59468031  .00000316  00000+0  32194-4 0  9997
2 24926  86.3340  51.1765 0006125 203.6263 156.4682 14.86938932532454
IRIDIUM 29              
1 24944U 97051A   25353.49147175  .00000303  00000+0  96280-4 0  9995
2 24944  86.3951  66.1088 0002260  91.3279 268.8177 14.36667947479874
IRIDIUM 33              
1 24946U 97051C   25353.47017910  .00000270  00000+0  87670-4 0  9994
2 24946  86.3867  65.3967 0007833 177.5382 182.5855 14.35041894479312
IRIDIUM 28              
1 24948U 97051E   25353.48746564  .00000304  00000+0  94975-4 0  9995
2 24948  86.3955  63.5201 0002150 109.7332 250.4097 14.37567837480465
IRIDIUM 36              
1 24967U 97056C   25353.35233102  .00000315  00000+0  97944-4 0  9997
2 24967  86.3963  95.2044 0002249 101.1266 259.0185 14.37789620478829
